{"type":"FeatureCollection","features":[{"type":"Feature","geometry":{"type":"Point","coordinates":[106.0336,-5.8892]},"properties":{"plant":"Banten Suralaya power station","mw":6025,"status":"beroperasi","units":10,"owner":"PT PLN (Persero)","prov":"Banten","year":2026}},{"type":"Feature","geometry":{"type":"Point","coordinates":[110.7423,-6.446]},"properties":{"plant":"Tanjung Jati B power station","mw":3320,"status":"beroperasi","units":4,"owner":"Sumitomo Corp","prov":"Central Java","year":2022}},{"type":"Feature","geometry":{"type":"Point","coordinates":[127.9842,0.4789]},"properties":{"plant":"Weda Bay power station","mw":2640,"status":"beroperasi","units":9,"owner":"Tsingshan Holding Group Co Ltd","prov":"North Maluku","year":2022}},{"type":"Feature","geometry":{"type":"Point","coordinates":[122.1719,-2.869]},"properties":{"plant":"Sulawesi Labota power station","mw":2280,"status":"beroperasi","units":6,"owner":"Indonesia Wanjia Ferro Nickel Co Ltd","prov":"Central Sulawesi","year":2023}},{"type":"Feature","geometry":{"type":"Point","coordinates":[117.858,2.528]},"properties":{"plant":"Adaro Aluminum Smelter power station","mw":2200,"status":"rencana","units":2,"owner":"PT Adaro Power","prov":"North Kalimantan","year":2026}},{"type":"Feature","geometry":{"type":"Point","coordinates":[127.421,-1.5614]},"properties":{"plant":"PT Halmahera Persada Lygend Nickel Smelter power station","mw":2120,"status":"beroperasi","units":8,"owner":"Harita Group [63.1%]; Ningbo Lygend [36.9%]","prov":"Maluku","year":2023}},{"type":"Feature","geometry":{"type":"Point","coordinates":[122.1555,-2.8256]},"properties":{"plant":"Sulawesi Mining power station","mw":2080,"status":"beroperasi","units":9,"owner":"Sulawesi Mining Investment","prov":"Central Sulawesi","year":2020}},{"type":"Feature","geometry":{"type":"Point","coordinates":[106.1008,-5.9917]},"properties":{"plant":"Jawa-7 power station","mw":1982,"status":"beroperasi","units":2,"owner":"China Shenhua Energy Co Ltd [70.0%]; PT PLN (Persero) [30.0%]","prov":"Banten","year":2020}},{"type":"Feature","geometry":{"type":"Point","coordinates":[109.8037,-6.9008]},"properties":{"plant":"Central Java Power Project","mw":1900,"status":"beroperasi","units":2,"owner":"J-POWER Co Ltd [34.0%]; PT Adaro Power [34.0%]; ITOCHU Corp [32.0%]","prov":"Central Java","year":2022}},{"type":"Feature","geometry":{"type":"Point","coordinates":[109.0964,-7.6832]},"properties":{"plant":"Cilacap Sumber power station","mw":1660,"status":"beroperasi","units":2,"owner":"PT Sumber Segara Primadaya","prov":"Central Java","year":2019}},{"type":"Feature","geometry":{"type":"Point","coordinates":[108.6149,-6.7703]},"properties":{"plant":"Cirebon power station","mw":1584,"status":"beroperasi","units":2,"owner":"Marubeni Corp [32.5%]; Korea Electric Power Corp [27.5%]; PT Indika Energy Tbk [20.0%]; Samtan [20.0%]","prov":"West Java","year":2023}},{"type":"Feature","geometry":{"type":"Point","coordinates":[113.5857,-7.7153]},"properties":{"plant":"Paiton-2 power station","mw":1320,"status":"beroperasi","units":2,"owner":"Siemens AG [50.0%]; Marubeni Corp [17.5%]; YTL Corp [17.5%]; PT Bumipertiwi Tatapradipta [15.0%]","prov":"East Java","year":2000}},{"type":"Feature","geometry":{"type":"Point","coordinates":[110.7435,-6.4448]},"properties":{"plant":"Tanjung Jati B power station","mw":1320,"status":"beroperasi","units":2,"owner":"Sumitomo Corp","prov":"Central Java","year":2006}},{"type":"Feature","geometry":{"type":"Point","coordinates":[106.4643,-6.0589]},"properties":{"plant":"Banten Lontar power station","mw":1260,"status":"beroperasi","units":4,"owner":"PT PLN (Persero)","prov":"Banten","year":2022}},{"type":"Feature","geometry":{"type":"Point","coordinates":[113.5857,-7.7153]},"properties":{"plant":"Paiton-1 power station","mw":1230,"status":"beroperasi","units":2,"owner":"RATCH Group PLC [45.5%]; Qatar Electricity and Water Company QPSC [21.3%]; Ras Laffan Operating Company WLL [14.2%]; Chubu Electric Power Co Inc [7.0%]; Tokyo Electric Power Co [7.0%]; PT Toba Bara Sejahtra Tbk [5.0%]","prov":"East Java","year":1999}},{"type":"Feature","geometry":{"type":"Point","coordinates":[103.8041,-3.8387]},"properties":{"plant":"Bangko Tengah power station","mw":1200,"status":"konstruksi","units":2,"owner":"China Huadian Group Corp [55.0%]; PT Bukit Asam Tbk [45.0%]","prov":"South Sumatra","year":2023}},{"type":"Feature","geometry":{"type":"Point","coordinates":[121.4297,-2.0143]},"properties":{"plant":"Delong Nickel Phase III power station","mw":1200,"status":"konstruksi","units":4,"owner":"Jiangsu Delong Nickel Industry Co","prov":"Central Sulawesi","year":0}},{"type":"Feature","geometry":{"type":"Point","coordinates":[128.0082,0.4762]},"properties":{"plant":"Weda Bay power station","mw":1140,"status":"konstruksi","units":3,"owner":"Tsingshan Holding Group Co Ltd","prov":"North Maluku","year":0}},{"type":"Feature","geometry":{"type":"Point","coordinates":[122.4683,-3.8279]},"properties":{"plant":"Delong Nickel Phase II power station","mw":1080,"status":"beroperasi","units":8,"owner":"Xiamen Xiangyu Group [51.0%]; Jiangsu Delong Nickel Industry Co [49.0%]","prov":"Southeast Sulawesi","year":2021}},{"type":"Feature","geometry":{"type":"Point","coordinates":[122.1771,-2.8679]},"properties":{"plant":"Sulawesi Labota power station","mw":1080,"status":"konstruksi","units":3,"owner":"Walsin Lihwa","prov":"Central Sulawesi","year":0}},{"type":"Feature","geometry":{"type":"Point","coordinates":[106.5464,-7.0242]},"properties":{"plant":"Pelabuhan Ratu power station","mw":1050,"status":"beroperasi","units":3,"owner":"PT PLN (Persero)","prov":"West Java","year":2013}},{"type":"Feature","geometry":{"type":"Point","coordinates":[107.9704,-6.2747]},"properties":{"plant":"Indramayu power station","mw":990,"status":"beroperasi","units":3,"owner":"PT PLN (Persero)","prov":"West Java","year":2011}},{"type":"Feature","geometry":{"type":"Point","coordinates":[121.4381,-2.0047]},"properties":{"plant":"Delong Nickel Phase III power station","mw":945,"status":"beroperasi","units":7,"owner":"Jiangsu Delong Nickel Industry Co","prov":"Central Sulawesi","year":2022}},{"type":"Feature","geometry":{"type":"Point","coordinates":[98.2582,4.1207]},"properties":{"plant":"Pangkalan Susu power station","mw":840,"status":"beroperasi","units":4,"owner":"PT Barito Pacific Tbk","prov":"North Sumatra","year":2019}},{"type":"Feature","geometry":{"type":"Point","coordinates":[113.5833,-7.7145]},"properties":{"plant":"Paiton-3 power station","mw":825,"status":"beroperasi","units":1,"owner":"RATCH Group PLC [45.5%]; Qatar Electricity and Water Company QPSC [21.3%]; Ras Laffan Operating Company WLL [14.2%]; Chubu Electric Power Co Inc [7.0%]; Tokyo Electric Power Co [7.0%]; PT Toba Bara Sejahtra Tbk [5.0%]","prov":"East Java","year":2012}},{"type":"Feature","geometry":{"type":"Point","coordinates":[113.585,-7.7147]},"properties":{"plant":"PLN Paiton power station","mw":800,"status":"beroperasi","units":2,"owner":"PT PLN (Persero)","prov":"East Java","year":1994}},{"type":"Feature","geometry":{"type":"Point","coordinates":[122.4627,-3.8275]},"properties":{"plant":"Delong Nickel Phase II power station","mw":760,"status":"beroperasi","units":2,"owner":"Xiamen Xiangyu Group [51.0%]; Jiangsu Delong Nickel Industry Co [49.0%]","prov":"Southeast Sulawesi","year":2022}},{"type":"Feature","geometry":{"type":"Point","coordinates":[101.6191,0.6893]},"properties":{"plant":"Perawang Mill power station","mw":755,"status":"beroperasi","units":7,"owner":"Sinar Mas Group","prov":"Riau","year":2014}},{"type":"Feature","geometry":{"type":"Point","coordinates":[111.9955,-6.8105]},"properties":{"plant":"Tanjung Awar-Awar power station","mw":700,"status":"beroperasi","units":2,"owner":"PT PLN (Persero)","prov":"East Java","year":2013}},{"type":"Feature","geometry":{"type":"Point","coordinates":[109.1376,-7.6859]},"properties":{"plant":"Adipala power station","mw":660,"status":"beroperasi","units":1,"owner":"PT PLN (Persero)","prov":"Central Java","year":2015}},{"type":"Feature","geometry":{"type":"Point","coordinates":[106.0459,-5.883]},"properties":{"plant":"Banten Serang power station","mw":660,"status":"beroperasi","units":1,"owner":"Genting Group","prov":"Banten","year":2017}},{"type":"Feature","geometry":{"type":"Point","coordinates":[113.5707,-7.711]},"properties":{"plant":"PLN Paiton Baru power station","mw":660,"status":"beroperasi","units":1,"owner":"PT PLN (Persero)","prov":"East Java","year":2012}},{"type":"Feature","geometry":{"type":"Point","coordinates":[111.3736,-8.2578]},"properties":{"plant":"Pacitan power station","mw":630,"status":"beroperasi","units":2,"owner":"PT PLN (Persero)","prov":"East Java","year":2011}},{"type":"Feature","geometry":{"type":"Point","coordinates":[111.4749,-6.636]},"properties":{"plant":"Rembang power station","mw":630,"status":"beroperasi","units":2,"owner":"PT PLN (Persero)","prov":"Central Java","year":2011}},{"type":"Feature","geometry":{"type":"Point","coordinates":[105.8278,-6.3922]},"properties":{"plant":"Banten Labuan power station","mw":600,"status":"beroperasi","units":2,"owner":"PT PLN (Persero)","prov":"Banten","year":2010}},{"type":"Feature","geometry":{"type":"Point","coordinates":[109.0898,-7.6857]},"properties":{"plant":"Cilacap Sumber power station","mw":600,"status":"beroperasi","units":2,"owner":"PT Sumber Segara Primadaya","prov":"Central Java","year":2006}},{"type":"Feature","geometry":{"type":"Point","coordinates":[102.9572,-2.1375]},"properties":{"plant":"Jambi-1 power station","mw":600,"status":"rencana","units":2,"owner":"PT PLN (Persero)","prov":"Jambi","year":2027}},{"type":"Feature","geometry":{"type":"Point","coordinates":[103.9992,-3.4767]},"properties":{"plant":"Sumsel-1 power station","mw":600,"status":"konstruksi","units":2,"owner":"China Shenhua Energy Co Ltd; Lion Power","prov":"South Sumatra","year":2023}},{"type":"Feature","geometry":{"type":"Point","coordinates":[122.4193,-3.9075]},"properties":{"plant":"Delong Nickel Phase I power station","mw":530,"status":"beroperasi","units":8,"owner":"Jiangsu Delong Nickel Industry Co","prov":"South Sulawesi","year":2019}},{"type":"Feature","geometry":{"type":"Point","coordinates":[119.5512,-5.6179]},"properties":{"plant":"Punagaya power station","mw":520,"status":"beroperasi","units":4,"owner":"Bosawa Corp","prov":"South Sulawesi","year":2018}},{"type":"Feature","geometry":{"type":"Point","coordinates":[115.1058,-3.9265]},"properties":{"plant":"Asam-Asam power station","mw":460,"status":"beroperasi","units":6,"owner":"Banjarmasin-B Project","prov":"South Kalimantan","year":2023}},{"type":"Feature","geometry":{"type":"Point","coordinates":[114.8516,-8.1963]},"properties":{"plant":"Celukan Bawang power station","mw":426,"status":"beroperasi","units":3,"owner":"PT General Energy Indonesia; PT Merryline International","prov":"Bali","year":2015}},{"type":"Feature","geometry":{"type":"Point","coordinates":[96.2024,4.1156]},"properties":{"plant":"Nagan Raya power station","mw":400,"status":"konstruksi","units":2,"owner":"China Datang Overseas Investment Co Ltd [62.0%]; PT Pembangunan Perumahan [33.7%]","prov":"Aceh","year":2023}},{"type":"Feature","geometry":{"type":"Point","coordinates":[105.9426,-6.0248]},"properties":{"plant":"Asahimas Chemical power station","mw":300,"status":"beroperasi","units":2,"owner":"AGC Inc [52.5%]; Ableman Finance [18.0%]; Rodamas [18.0%]; Mitsubishi Corporation Energy Solutions [11.5%]","prov":"Banten","year":2019}},{"type":"Feature","geometry":{"type":"Point","coordinates":[104.1186,-3.4014]},"properties":{"plant":"Shenhua Guohua power station","mw":300,"status":"beroperasi","units":2,"owner":"China Energy Investment Corp [70.0%]; Energi Musi Makmur [30.0%]","prov":"South Sumatra","year":2011}},{"type":"Feature","geometry":{"type":"Point","coordinates":[103.8307,-5.0574]},"properties":{"plant":"Sumbagsel-1 power station","mw":300,"status":"rencana","units":2,"owner":"PT Sumberenergi Sakti Prima [55.0%]; PT Adimas Puspita Serasi [25.0%]; PT D&C Engineering Co [10.0%]; PT PLN (Persero) [10.0%]","prov":"South Sumatra","year":2024}},{"type":"Feature","geometry":{"type":"Point","coordinates":[103.7553,-2.1563]},"properties":{"plant":"Sumsel-5 power station","mw":300,"status":"beroperasi","units":2,"owner":"Datang Overseas Energy Investment Co Ltd [75.0%]; Sinar Mas Group [25.0%]","prov":"South Sumatra","year":2016}},{"type":"Feature","geometry":{"type":"Point","coordinates":[98.6369,3.7803]},"properties":{"plant":"Sumut-1 power station","mw":300,"status":"konstruksi","units":2,"owner":"Oceanwide Holdings Co Ltd [60.0%]; PT Garda Sayap Garuda [20.0%]; Power Construction Corporation of China Ltd [20.0%]","prov":"North Sumatra","year":2023}},{"type":"Feature","geometry":{"type":"Point","coordinates":[107.052,-6.1161]},"properties":{"plant":"Cikarang Babelan power station","mw":280,"status":"beroperasi","units":2,"owner":"PT Cikarang Listrindo","prov":"West Java","year":2017}},{"type":"Feature","geometry":{"type":"Point","coordinates":[103.6481,-3.7515]},"properties":{"plant":"Keban Agung power station","mw":270,"status":"beroperasi","units":2,"owner":"Priamanaya Djan International","prov":"South Sumatra","year":2015}},{"type":"Feature","geometry":{"type":"Point","coordinates":[103.7975,-3.7321]},"properties":{"plant":"Bukit Asam Muara Enim power station","mw":260,"status":"beroperasi","units":4,"owner":"PT PLN (Persero)","prov":"South Sumatra","year":1994}},{"type":"Feature","geometry":{"type":"Point","coordinates":[98.7313,1.7518]},"properties":{"plant":"Labuhan Angin power station","mw":230,"status":"beroperasi","units":2,"owner":"PT PLN (Persero)","prov":"North Sumatra","year":2008}},{"type":"Feature","geometry":{"type":"Point","coordinates":[112.4688,-7.4368]},"properties":{"plant":"Tjiwi Kimia Paper Mill power station","mw":230,"status":"beroperasi","units":4,"owner":"Asia Pulp & Paper","prov":"East Java","year":2015}},{"type":"Feature","geometry":{"type":"Point","coordinates":[100.3724,-1.0765]},"properties":{"plant":"Teluk Sirih power station","mw":224,"status":"beroperasi","units":2,"owner":"PT PLN (Persero)","prov":"West Sumatra","year":2013}},{"type":"Feature","geometry":{"type":"Point","coordinates":[103.6904,-3.7251]},"properties":{"plant":"Banjarsari power station","mw":220,"status":"beroperasi","units":2,"owner":"PT Bukit Asam Tbk [59.8%]; PT PLN (Persero) [37.2%]","prov":"South Sumatra","year":2015}},{"type":"Feature","geometry":{"type":"Point","coordinates":[116.7887,-1.1704]},"properties":{"plant":"Kaltim Teluk Balikpapan power station","mw":220,"status":"beroperasi","units":2,"owner":"PT PLN (Persero)","prov":"East Kalimantan","year":2017}},{"type":"Feature","geometry":{"type":"Point","coordinates":[110.1573,-2.3662]},"properties":{"plant":"Ketapang Smelter power station","mw":220,"status":"beroperasi","units":4,"owner":"China Hongqiao Group; Harita Group","prov":"West Kalimantan","year":2021}},{"type":"Feature","geometry":{"type":"Point","coordinates":[96.1989,4.1075]},"properties":{"plant":"Nagan Raya power station","mw":220,"status":"beroperasi","units":2,"owner":"Unnamed special purpose vehicle","prov":"Aceh","year":2014}},{"type":"Feature","geometry":{"type":"Point","coordinates":[101.5234,0.5644]},"properties":{"plant":"Pekanbaru Tenayan power station","mw":220,"status":"beroperasi","units":2,"owner":"PT PLN (Persero)","prov":"Riau","year":2017}},{"type":"Feature","geometry":{"type":"Point","coordinates":[103.0821,-1.0069]},"properties":{"plant":"Sinar Mas Jambi Lontar power station","mw":211,"status":"beroperasi","units":4,"owner":"Sinar Mas Group","prov":"Jambi","year":2017}},{"type":"Feature","geometry":{"type":"Point","coordinates":[119.6313,-4.2933]},"properties":{"plant":"Barru power station","mw":200,"status":"beroperasi","units":3,"owner":"PT PLN (Persero)","prov":"South Sulawesi","year":2022}},{"type":"Feature","geometry":{"type":"Point","coordinates":[102.2704,-3.9123]},"properties":{"plant":"Bengkulu power station","mw":200,"status":"beroperasi","units":2,"owner":"Power Construction Corporation of China Ltd [70.0%]; PT Intraco Penta [30.0%]","prov":"Bengkulu","year":2019}},{"type":"Feature","geometry":{"type":"Point","coordinates":[108.8461,0.8162]},"properties":{"plant":"Kalbar-1 power station","mw":200,"status":"beroperasi","units":2,"owner":"Golden Concord Holdings","prov":"West Kalimantan","year":2021}},{"type":"Feature","geometry":{"type":"Point","coordinates":[113.5672,-1.3708]},"properties":{"plant":"Kalselteng-1 power station","mw":200,"status":"beroperasi","units":2,"owner":"Datang Overseas Energy Investment Co Ltd [75.0%]; Sinar Mas Group [25.0%]","prov":"Central Kalimantan","year":2020}},{"type":"Feature","geometry":{"type":"Point","coordinates":[117.4946,0.0552]},"properties":{"plant":"Kaltim FTP2 power station","mw":200,"status":"beroperasi","units":2,"owner":"PT PLN (Persero)","prov":"East Kalimantan","year":2020}},{"type":"Feature","geometry":{"type":"Point","coordinates":[117.065,-0.365]},"properties":{"plant":"Kaltim-4 power station","mw":200,"status":"beroperasi","units":2,"owner":"PT Indonesia Energi Dinamika","prov":"Central Kalimantan","year":2020}},{"type":"Feature","geometry":{"type":"Point","coordinates":[105.3872,-5.5859]},"properties":{"plant":"Lampung Sebalang power station","mw":200,"status":"beroperasi","units":2,"owner":"PT PLN (Persero)","prov":"Lampung","year":2015}},{"type":"Feature","geometry":{"type":"Point","coordinates":[100.7537,-0.609]},"properties":{"plant":"Ombilin power station","mw":200,"status":"beroperasi","units":2,"owner":"PT PLN (Persero)","prov":"West Sumatra","year":1997}},{"type":"Feature","geometry":{"type":"Point","coordinates":[109.2036,0.058]},"properties":{"plant":"Parit Baru power station","mw":200,"status":"beroperasi","units":4,"owner":"Gezhouba Group; PT Praba Indopersada","prov":"West Kalimantan","year":2025}},{"type":"Feature","geometry":{"type":"Point","coordinates":[115.4408,-2.1634]},"properties":{"plant":"Tabalong power station","mw":200,"status":"beroperasi","units":2,"owner":"PT Adaro Power [65.0%]; Korea Electric Power Corp [35.0%]","prov":"South Kalimantan","year":2019}},{"type":"Feature","geometry":{"type":"Point","coordinates":[119.5508,-5.6236]},"properties":{"plant":"Takalar power station","mw":200,"status":"beroperasi","units":2,"owner":"PT PLN (Persero)","prov":"South Sulawesi","year":2018}},{"type":"Feature","geometry":{"type":"Point","coordinates":[105.3535,-5.5212]},"properties":{"plant":"Tarahan power station","mw":200,"status":"beroperasi","units":2,"owner":"PT PLN (Persero)","prov":"Lampung","year":2008}},{"type":"Feature","geometry":{"type":"Point","coordinates":[136.8391,-4.8277]},"properties":{"plant":"Amamapare Port power station","mw":195,"status":"beroperasi","units":3,"owner":"PT Puncakjaya Power","prov":"Papua","year":1999}},{"type":"Feature","geometry":{"type":"Point","coordinates":[106.2892,-6.1254]},"properties":{"plant":"DSS Serang power station","mw":175,"status":"beroperasi","units":4,"owner":"Datang Overseas Energy Investment Co Ltd [75.0%]; Sinar Mas Group [25.0%]","prov":"Banten","year":0}},{"type":"Feature","geometry":{"type":"Point","coordinates":[121.4307,-2.0166]},"properties":{"plant":"Delong Nickel Phase III power station","mw":150,"status":"konstruksi","units":1,"owner":"Jiangsu Delong Nickel Industry Co","prov":"Central Sulawesi","year":0}},{"type":"Feature","geometry":{"type":"Point","coordinates":[127.4159,-1.5661]},"properties":{"plant":"Jinchuan Group WP&RKA power station","mw":150,"status":"beroperasi","units":3,"owner":"Jinchuan Group","prov":"Maluku","year":2019}},{"type":"Feature","geometry":{"type":"Point","coordinates":[122.2616,-3.0404]},"properties":{"plant":"Qingdao Zhongsheng captive power station","mw":130,"status":"beroperasi","units":2,"owner":"Qingdao Urban Construction Investment (Group) Co Ltd; Qingdao Xiyuan Holdings Co Ltd; Shandong Taishan Steel Group Co Ltd","prov":"Central Sulawesi","year":2022}},{"type":"Feature","geometry":{"type":"Point","coordinates":[104.1357,1.0441]},"properties":{"plant":"Tanjung Kasam power station","mw":130,"status":"beroperasi","units":2,"owner":"PT Petra Unggul Sejahtera [70.0%]; PT Intraco Penta [30.0%]","prov":"Riau","year":2012}},{"type":"Feature","geometry":{"type":"Point","coordinates":[122.0306,-2.7309]},"properties":{"plant":"Wanxiang Nickel Indonesia power station","mw":130,"status":"beroperasi","units":2,"owner":"PT Wanxiang Steel Indonesia","prov":"Central Sulawesi","year":2022}},{"type":"Feature","geometry":{"type":"Point","coordinates":[116.7382,-8.9012]},"properties":{"plant":"Batu Hijau power station","mw":124,"status":"beroperasi","units":4,"owner":"Newmont Corp","prov":"West Nusa Tenggara","year":1999}},{"type":"Feature","geometry":{"type":"Point","coordinates":[114.2088,-2.8226]},"properties":{"plant":"Kalteng-1 Pulang Pisau power station","mw":120,"status":"beroperasi","units":2,"owner":"PT PLN (Persero)","prov":"Central Kalimantan","year":2015}},{"type":"Feature","geometry":{"type":"Point","coordinates":[106.0642,-5.884]},"properties":{"plant":"Merak power station","mw":120,"status":"beroperasi","units":2,"owner":"Merak Energi","prov":"Banten","year":2014}},{"type":"Feature","geometry":{"type":"Point","coordinates":[127.416,-1.5361]},"properties":{"plant":"PT Halmahera Persada Lygend Nickel Smelter power station","mw":120,"status":"beroperasi","units":3,"owner":"Harita Group [63.1%]; Ningbo Lygend [36.9%]","prov":"Maluku","year":2021}},{"type":"Feature","geometry":{"type":"Point","coordinates":[127.4191,-1.5306]},"properties":{"plant":"MSP Pulau Obi power station","mw":114,"status":"beroperasi","units":3,"owner":"Xinxing Qiyun Investment Holdings Co Ltd [40.0%]; PT Trimegah Bangun Persada [30.0%]; Harita Group [20.0%]; PT Gane Permai Sentosa [10.0%]","prov":"North Maluku","year":2016}},{"type":"Feature","geometry":{"type":"Point","coordinates":[127.419,-1.5305]},"properties":{"plant":"Xinxing Ductile Iron Pipes power station","mw":114,"status":"beroperasi","units":3,"owner":"Xinxing Qiyun Investment Holdings Co Ltd [40.0%]; PT Trimegah Bangun Persada [30.0%]; Harita Group [20.0%]; PT Gane Permai Sentosa [10.0%]","prov":"Maluku","year":2017}},{"type":"Feature","geometry":{"type":"Point","coordinates":[108.8737,0.8351]},"properties":{"plant":"Bengkayang Power Station","mw":100,"status":"beroperasi","units":2,"owner":"PT PLN (Persero)","prov":"West Kalimantan","year":2019}},{"type":"Feature","geometry":{"type":"Point","coordinates":[122.6535,-4.0513]},"properties":{"plant":"Kendari-3 power station","mw":100,"status":"beroperasi","units":2,"owner":"Datang Overseas Energy Investment Co Ltd [75.0%]; Sinar Mas Group [25.0%]","prov":"Southeast Sulawesi","year":2019}},{"type":"Feature","geometry":{"type":"Point","coordinates":[116.7096,-8.4221]},"properties":{"plant":"Lombok FTP2 power station","mw":100,"status":"konstruksi","units":2,"owner":"PT PLN (Persero)","prov":"West Nusa Tenggara","year":2022}},{"type":"Feature","geometry":{"type":"Point","coordinates":[119.8559,-0.7332]},"properties":{"plant":"Palu power station","mw":100,"status":"konstruksi","units":2,"owner":"PT PLN (Persero)","prov":"Central Sulawesi","year":2023}},{"type":"Feature","geometry":{"type":"Point","coordinates":[122.9416,0.9427]},"properties":{"plant":"Sulbagut-1 power station","mw":100,"status":"beroperasi","units":2,"owner":"Toba Bara [60.0%]; PT Toba Bara Sejahtra Tbk [20.0%]; State Power Investment Corp [20.0%]","prov":"Gorontalo","year":2022}},{"type":"Feature","geometry":{"type":"Point","coordinates":[123.4701,0.8902]},"properties":{"plant":"Sulut-1 power station","mw":100,"status":"konstruksi","units":2,"owner":"PT PLN (Persero)","prov":"North Sulawesi","year":2024}},{"type":"Feature","geometry":{"type":"Point","coordinates":[125.0854,1.3743]},"properties":{"plant":"Sulut-3 power station","mw":100,"status":"beroperasi","units":2,"owner":"Toba Bara [90.0%]; China Hydropower Construction Group New Energy Development Co Ltd [10.0%]","prov":"North Sulawesi","year":2021}},{"type":"Feature","geometry":{"type":"Point","coordinates":[123.4599,-10.352]},"properties":{"plant":"Timor-1 power station","mw":100,"status":"konstruksi","units":2,"owner":"PT PLN (Persero)","prov":"East Nusa Tenggara","year":2023}},{"type":"Feature","geometry":{"type":"Point","coordinates":[104.6555,0.9171]},"properties":{"plant":"Nanshan Industrial Park power station","mw":90,"status":"beroperasi","units":3,"owner":"Global Aluminium International [72.7%]; Press Metal Aluminium Holdings Bhd [25.0%]","prov":"Riau","year":2022}},{"type":"Feature","geometry":{"type":"Point","coordinates":[104.6505,0.9116]},"properties":{"plant":"Nanshan Industrial Park power station","mw":90,"status":"beroperasi","units":3,"owner":"Global Aluminium International [72.7%]; Press Metal Aluminium Holdings Bhd [25.0%]","prov":"Riau","year":2022}},{"type":"Feature","geometry":{"type":"Point","coordinates":[119.5017,-4.8167]},"properties":{"plant":"Tonasa Cement Plant power station","mw":70,"status":"beroperasi","units":2,"owner":"PT Semen Indonesia","prov":"South Sulawesi","year":2013}},{"type":"Feature","geometry":{"type":"Point","coordinates":[124.4806,1.1825]},"properties":{"plant":"Amurang power station","mw":60,"status":"beroperasi","units":2,"owner":"PT PLN (Persero)","prov":"North Sulawesi","year":2012}},{"type":"Feature","geometry":{"type":"Point","coordinates":[124.4806,1.1825]},"properties":{"plant":"Amurang-2 power station","mw":60,"status":"beroperasi","units":2,"owner":"PT PLN (Persero)","prov":"North Sulawesi","year":2018}},{"type":"Feature","geometry":{"type":"Point","coordinates":[106.1496,-2.0793]},"properties":{"plant":"Bangka Baru power station","mw":60,"status":"beroperasi","units":2,"owner":"PT PLN (Persero)","prov":"Bangka-Belitung","year":2014}},{"type":"Feature","geometry":{"type":"Point","coordinates":[106.2502,-6.9508]},"properties":{"plant":"Cemindo Gemilang power station","mw":60,"status":"beroperasi","units":1,"owner":"PT Cemindo Gemilang","prov":"Banten","year":2016}},{"type":"Feature","geometry":{"type":"Point","coordinates":[117.0625,-0.3731]},"properties":{"plant":"Embalut power station","mw":60,"status":"beroperasi","units":1,"owner":"Jawa Pos Group","prov":"East Kalimantan","year":2014}},{"type":"Feature","geometry":{"type":"Point","coordinates":[98.6654,3.6676]},"properties":{"plant":"Medan Steel Mill power station","mw":60,"status":"beroperasi","units":2,"owner":"Nanjing Iron and Steel Co Ltd; PT Gunung Gahapi","prov":"North Sumatra","year":2017}},{"type":"Feature","geometry":{"type":"Point","coordinates":[121.5929,-4.1799]},"properties":{"plant":"Pomalaa Nickel power station","mw":60,"status":"beroperasi","units":2,"owner":"PT Aneka Tambang Tbk","prov":"Southeast Sulawesi","year":2016}},{"type":"Feature","geometry":{"type":"Point","coordinates":[107.4137,-6.5539]},"properties":{"plant":"Purwakarta Indorama power station","mw":60,"status":"beroperasi","units":2,"owner":"Indorama Corp","prov":"West Java","year":2006}},{"type":"Feature","geometry":{"type":"Point","coordinates":[115.4459,-2.1586]},"properties":{"plant":"Tabalong Wisesa power station","mw":60,"status":"beroperasi","units":2,"owner":"PT Adaro Power","prov":"South Kalimantan","year":2013}},{"type":"Feature","geometry":{"type":"Point","coordinates":[107.124,-6.2726]},"properties":{"plant":"FAJAR power station","mw":55,"status":"beroperasi","units":1,"owner":"Siam Cement Group","prov":"West Java","year":2017}},{"type":"Feature","geometry":{"type":"Point","coordinates":[116.1059,-3.2729]},"properties":{"plant":"Kalimantan Cement Works power station","mw":55,"status":"beroperasi","units":1,"owner":"HeidelbergCement AG","prov":"South Kalimantan","year":1998}},{"type":"Feature","geometry":{"type":"Point","coordinates":[107.3436,-6.3855]},"properties":{"plant":"Pindo-Deli-Ii power station","mw":50,"status":"beroperasi","units":1,"owner":"Datang Overseas Energy Investment Co Ltd [75.0%]; Sinar Mas Group [25.0%]","prov":"West Java","year":2007}},{"type":"Feature","geometry":{"type":"Point","coordinates":[105.9501,-6.0239]},"properties":{"plant":"Cilegon PTIP Power Station","mw":40,"status":"beroperasi","units":1,"owner":"Indorama Ventures","prov":"Banten","year":2017}},{"type":"Feature","geometry":{"type":"Point","coordinates":[107.3852,-6.4858]},"properties":{"plant":"Indo Bharat Rayon power station","mw":37,"status":"beroperasi","units":1,"owner":"Aditya Birla Group","prov":"West Java","year":2008}},{"type":"Feature","geometry":{"type":"Point","coordinates":[107.6058,-6.9705]},"properties":{"plant":"Bandung Indosyntec power station","mw":30,"status":"beroperasi","units":1,"owner":"PT Panasia Indosyntec Tbk","prov":"West Java","year":2004}}]}