{"type":"FeatureCollection","features":[{"type":"Feature","geometry":{"type":"Point","coordinates":[101.3298725,0.659298533]},"properties":{"co2":15.78,"kapasitas":0,"nama":"Central Sumatra · Conventional onshore","jenis":"","sektor":"fossil-fuel-operations","pemilik":"PT Pertamina (Persero) PT"}},{"type":"Feature","geometry":{"type":"Point","coordinates":[122.158534174133,-2.83215284654784]},"properties":{"co2":11.75,"kapasitas":7000000,"nama":"Dexin Steel Morowali plant","jenis":"BF/BOF","sektor":"manufacturing","pemilik":"Dexin Steel Pte Ltd"}},{"type":"Feature","geometry":{"type":"Point","coordinates":[103.9619032,-2.521050569]},"properties":{"co2":11.38,"kapasitas":0,"nama":"South Sumatra · Conventional onshore","jenis":"","sektor":"fossil-fuel-operations","pemilik":"PT Medco Energi Internasional Tbk"}},{"type":"Feature","geometry":{"type":"Point","coordinates":[133.1601164,-2.332767979]},"properties":{"co2":8.7,"kapasitas":0,"nama":"Bintuni · LNG","jenis":"","sektor":"fossil-fuel-operations","pemilik":""}},{"type":"Feature","geometry":{"type":"Point","coordinates":[133.1601164,-2.332767979]},"properties":{"co2":7.54,"kapasitas":0,"nama":"Bintuni · LNG","jenis":"","sektor":"fossil-fuel-operations","pemilik":""}},{"type":"Feature","geometry":{"type":"Point","coordinates":[117.599032,0.823979]},"properties":{"co2":7.21,"kapasitas":74835258,"nama":"KPC Operation Coal Mine","jenis":"Surface","sektor":"fossil-fuel-operations","pemilik":"PT Kaltim Prima Coal"}},{"type":"Feature","geometry":{"type":"Point","coordinates":[117.6702946,-0.794387317]},"properties":{"co2":6.43,"kapasitas":0,"nama":"Kutei · LNG","jenis":"","sektor":"fossil-fuel-operations","pemilik":""}},{"type":"Feature","geometry":{"type":"Point","coordinates":[103.768323,-3.739981]},"properties":{"co2":5.62,"kapasitas":58290523,"nama":"PTBA Coal Mines","jenis":"Underground & Surface","sektor":"fossil-fuel-operations","pemilik":"PT Bukit Asam Tbk"}},{"type":"Feature","geometry":{"type":"Point","coordinates":[105.979229415036,-6.00556457573697]},"properties":{"co2":5.41,"kapasitas":3000000,"nama":"KS Posco Cilegon steel plant","jenis":"BF/BOF","sektor":"manufacturing","pemilik":"PT Krakatau Posco"}},{"type":"Feature","geometry":{"type":"Point","coordinates":[111.911185242194,-6.86760550699832]},"properties":{"co2":5.15,"kapasitas":11900000,"nama":"Semen Gresik Tuban Cement Plant","jenis":"integrated dry","sektor":"manufacturing","pemilik":"PT Semen Indonesia (Persero) Tbk"}},{"type":"Feature","geometry":{"type":"Point","coordinates":[111.5517256,-7.089595226]},"properties":{"co2":4.65,"kapasitas":0,"nama":"Java Sea · Conventional onshore","jenis":"","sektor":"fossil-fuel-operations","pemilik":""}},{"type":"Feature","geometry":{"type":"Point","coordinates":[106.899165370388,-6.4798753627451]},"properties":{"co2":4.24,"kapasitas":11900000,"nama":"Indocement Tunggal Prakarsa Citeureup Cement Plant","jenis":"integrated dry","sektor":"manufacturing","pemilik":"PT Indocement Tunggal Prakarsa Tbk"}},{"type":"Feature","geometry":{"type":"Point","coordinates":[119.616763135575,-4.787510124374]},"properties":{"co2":3.8,"kapasitas":7400000,"nama":"Semen Tonasa Cement Plant","jenis":"integrated dry","sektor":"manufacturing","pemilik":"PT Semen Tonasa"}},{"type":"Feature","geometry":{"type":"Point","coordinates":[117.6702946,-0.794387317]},"properties":{"co2":3.64,"kapasitas":0,"nama":"Kutei · LNG","jenis":"","sektor":"fossil-fuel-operations","pemilik":""}},{"type":"Feature","geometry":{"type":"Point","coordinates":[100.470137880087,-0.947567440162608]},"properties":{"co2":3.16,"kapasitas":8800000,"nama":"Semen Padang Cement Plant","jenis":"integrated dry","sektor":"manufacturing","pemilik":"PT Semen Padang"}},{"type":"Feature","geometry":{"type":"Point","coordinates":[106.934543787614,-6.46126069991984]},"properties":{"co2":2.6,"kapasitas":6060000,"nama":"Solusi Bangun Indonesia Narogong Cement Plant","jenis":"integrated dry","sektor":"manufacturing","pemilik":"PT Solusi Bangun Indonesia Tbk"}},{"type":"Feature","geometry":{"type":"Point","coordinates":[108.401318578228,-6.70517030516127]},"properties":{"co2":2.51,"kapasitas":4100000,"nama":"Indocement Tunggal Prakarsa Cirebon Cement Plant","jenis":"integrated dry","sektor":"manufacturing","pemilik":"PT Indocement Tunggal Prakarsa Tbk"}},{"type":"Feature","geometry":{"type":"Point","coordinates":[116.820556,-1.245655]},"properties":{"co2":2.49,"kapasitas":260000,"nama":"Pertamina Balikpapan Refinery","jenis":"Deep Conversion","sektor":"fossil-fuel-operations","pemilik":"PT Pertamina (Persero) "}},{"type":"Feature","geometry":{"type":"Point","coordinates":[122.3330616,-1.471108454]},"properties":{"co2":2.35,"kapasitas":0,"nama":"Tomori · LNG","jenis":"","sektor":"fossil-fuel-operations","pemilik":""}},{"type":"Feature","geometry":{"type":"Point","coordinates":[103.9619032,-2.521050569]},"properties":{"co2":2.27,"kapasitas":0,"nama":"South Sumatra · Conventional onshore","jenis":"","sektor":"fossil-fuel-operations","pemilik":"PT Medco Energi Internasional Tbk"}},{"type":"Feature","geometry":{"type":"Point","coordinates":[107.114959197088,-6.27973533367558]},"properties":{"co2":2,"kapasitas":2800000,"nama":"Gunung Raja Paksi West Java steel plant","jenis":"BF/BOF,EAF","sektor":"manufacturing","pemilik":"PT Gunung Raja Paksi Tbk"}},{"type":"Feature","geometry":{"type":"Point","coordinates":[116.126335,0.550906]},"properties":{"co2":1.94,"kapasitas":61152692,"nama":"Tabang Project Coal Mines","jenis":"Surface","sektor":"fossil-fuel-operations","pemilik":"PT Bara Tabang"}},{"type":"Feature","geometry":{"type":"Point","coordinates":[115.871586,-1.890937]},"properties":{"co2":1.94,"kapasitas":42025024,"nama":"Pasir Coal Mine","jenis":"Surface","sektor":"fossil-fuel-operations","pemilik":"PT Kideco Jaya Agung"}},{"type":"Feature","geometry":{"type":"Point","coordinates":[113.9432246,-7.124748895]},"properties":{"co2":1.94,"kapasitas":0,"nama":"East Java · Conventional shelf","jenis":"","sektor":"fossil-fuel-operations","pemilik":"CNOOC Ltd"}},{"type":"Feature","geometry":{"type":"Point","coordinates":[115.527798,-2.204484]},"properties":{"co2":1.9,"kapasitas":59896130,"nama":"Tutupan Coal Mine","jenis":"Surface","sektor":"fossil-fuel-operations","pemilik":"PT Adaro Indonesia"}},{"type":"Feature","geometry":{"type":"Point","coordinates":[115.559833,-3.700239]},"properties":{"co2":1.86,"kapasitas":58835033,"nama":"Borneo Indobara Coal Mine","jenis":"Surface","sektor":"fossil-fuel-operations","pemilik":"PT Borneo Indobara"}},{"type":"Feature","geometry":{"type":"Point","coordinates":[105.9329,-6.038713]},"properties":{"co2":1.85,"kapasitas":900000,"nama":"PT Chandra asri Petrochemical, Asri Cilegon, West Java","jenis":"Naphtha","sektor":"manufacturing","pemilik":"Barito Pacific Group "}},{"type":"Feature","geometry":{"type":"Point","coordinates":[117.873624,1.142666]},"properties":{"co2":1.83,"kapasitas":18960127,"nama":"GAM Coal Mine","jenis":"Surface","sektor":"fossil-fuel-operations","pemilik":"PT Ganda Alam Makmur"}},{"type":"Feature","geometry":{"type":"Point","coordinates":[115.927125,-3.339296]},"properties":{"co2":1.76,"kapasitas":1000000,"nama":"CNR Mandan Steel South Kalimantan plant","jenis":"BF/BOF","sektor":"manufacturing","pemilik":"PT Mandan Steel"}},{"type":"Feature","geometry":{"type":"Point","coordinates":[108.999313,-7.700169]},"properties":{"co2":1.7,"kapasitas":348000,"nama":"Pertamina Cilacap Refinery","jenis":"Hydroskimming","sektor":"fossil-fuel-operations","pemilik":"PT Pertamina (Persero) "}},{"type":"Feature","geometry":{"type":"Point","coordinates":[137.121579,-4.063208]},"properties":{"co2":1.59,"kapasitas":9324000000,"nama":"Grasberg Block Cave Mine","jenis":"copper-mine","sektor":"mineral-extraction","pemilik":""}},{"type":"Feature","geometry":{"type":"Point","coordinates":[111.883375799498,-6.8158517566359]},"properties":{"co2":1.51,"kapasitas":3730000,"nama":"Solusi Bangun Indonesia Tuban Cement Plant","jenis":"integrated dry","sektor":"manufacturing","pemilik":"PT Solusi Bangun Indonesia Tbk"}},{"type":"Feature","geometry":{"type":"Point","coordinates":[122.3330616,-1.471108454]},"properties":{"co2":1.45,"kapasitas":0,"nama":"Tomori · LNG","jenis":"","sektor":"fossil-fuel-operations","pemilik":""}},{"type":"Feature","geometry":{"type":"Point","coordinates":[124.081481387916,0.896247958195783]},"properties":{"co2":1.36,"kapasitas":4400000,"nama":"Conch Cement north Sulawesi Cement Plant","jenis":"integrated dry","sektor":"manufacturing","pemilik":"PT Conch North Sulawesi Cement"}},{"type":"Feature","geometry":{"type":"Point","coordinates":[110.506734366746,-1.8235812130715]},"properties":{"co2":1.33,"kapasitas":634693,"nama":"Ketapang Regency","jenis":"Refinery","sektor":"manufacturing","pemilik":""}},{"type":"Feature","geometry":{"type":"Point","coordinates":[109.074002876613,-7.43750725980226]},"properties":{"co2":1.23,"kapasitas":5000000,"nama":"Sinar Tambang Arthalestari Banyumas Cement Plant","jenis":"integrated dry","sektor":"manufacturing","pemilik":"PT Sinar Tambang Arthalestari"}},{"type":"Feature","geometry":{"type":"Point","coordinates":[113.493094595534,-8.34834932901925]},"properties":{"co2":1.2,"kapasitas":3000000,"nama":"Renma Red Lion Jember Cement Plant","jenis":"integrated dry","sektor":"manufacturing","pemilik":"Renmohongshi Cement"}},{"type":"Feature","geometry":{"type":"Point","coordinates":[113.493094595534,-8.34834932901925]},"properties":{"co2":1.2,"kapasitas":3000000,"nama":"Semen Imasco Asiatic Jember Cement Plant","jenis":"integrated dry","sektor":"manufacturing","pemilik":"Hongshi Holding Group Co Ltd"}},{"type":"Feature","geometry":{"type":"Point","coordinates":[108.5,-6.508610422]},"properties":{"co2":1.18,"kapasitas":0,"nama":"Northwest Java · Conventional onshore","jenis":"","sektor":"fossil-fuel-operations","pemilik":""}},{"type":"Feature","geometry":{"type":"Point","coordinates":[101.471197,1.674253]},"properties":{"co2":1.17,"kapasitas":120000,"nama":"Pertamina Dumai Refinery","jenis":"Deep Conversion","sektor":"fossil-fuel-operations","pemilik":"PT Pertamina (Persero) "}},{"type":"Feature","geometry":{"type":"Point","coordinates":[106.247091707726,-6.9533363482685]},"properties":{"co2":1.16,"kapasitas":3500000,"nama":"Cemindo Gemilang Bayah Cement Plant","jenis":"integrated dry","sektor":"manufacturing","pemilik":"PT Cemindo Gemilang Tbk"}},{"type":"Feature","geometry":{"type":"Point","coordinates":[116.105825225973,-3.27174330073218]},"properties":{"co2":1.14,"kapasitas":2600000,"nama":"Indocement Tunggal Prakarsa Kotabaru Regency Cement Plant","jenis":"integrated dry","sektor":"manufacturing","pemilik":"PT Indocement Tunggal Prakarsa Tbk"}},{"type":"Feature","geometry":{"type":"Point","coordinates":[119.626311104782,-4.94661969787739]},"properties":{"co2":1.14,"kapasitas":4300000,"nama":"Semen Bosowa Maros Cement Plant","jenis":"integrated dry","sektor":"manufacturing","pemilik":"PT Semen Bosowa Maros"}},{"type":"Feature","geometry":{"type":"Point","coordinates":[131.05,-1.267]},"properties":{"co2":1.08,"kapasitas":0,"nama":"Salawati · Conventional onshore","jenis":"","sektor":"fossil-fuel-operations","pemilik":""}},{"type":"Feature","geometry":{"type":"Point","coordinates":[137.103348,-4.103814]},"properties":{"co2":1.03,"kapasitas":3996000000,"nama":"Deep Mill Level Zone Mine","jenis":"copper-mine","sektor":"mineral-extraction","pemilik":"FreePort-McMoran Inc"}},{"type":"Feature","geometry":{"type":"Point","coordinates":[106.3851564,-5.117439431]},"properties":{"co2":1.01,"kapasitas":0,"nama":"Sunda · Conventional shelf","jenis":"","sektor":"fossil-fuel-operations","pemilik":""}},{"type":"Feature","geometry":{"type":"Point","coordinates":[117.80553,0.894663]},"properties":{"co2":0.97,"kapasitas":30506537,"nama":"Indexim Coalindo Coal Mine","jenis":"Surface","sektor":"fossil-fuel-operations","pemilik":"PT Indexim Coalindo"}},{"type":"Feature","geometry":{"type":"Point","coordinates":[109.02203521905,-7.68700066174358]},"properties":{"co2":0.96,"kapasitas":3230000,"nama":"Solusi Bangun Indonesia Cilacap Cement Plant","jenis":"integrated dry","sektor":"manufacturing","pemilik":"PT Solusi Bangun Indonesia Tbk"}},{"type":"Feature","geometry":{"type":"Point","coordinates":[115.259809,-2.889157]},"properties":{"co2":0.95,"kapasitas":30115607,"nama":"AGM Coal Mine","jenis":"Surface","sektor":"fossil-fuel-operations","pemilik":"PT Antang Gunung Meratus"}},{"type":"Feature","geometry":{"type":"Point","coordinates":[107.212131307529,-6.460348846736]},"properties":{"co2":0.92,"kapasitas":2500000,"nama":"Semen Garuda Bekasi Cement Plant","jenis":"integrated dry","sektor":"manufacturing","pemilik":"PT Jui Shin Indonesia"}},{"type":"Feature","geometry":{"type":"Point","coordinates":[104.830102,-2.994508]},"properties":{"co2":0.91,"kapasitas":118000,"nama":"Pertamina Plaju Refinery","jenis":"Medium Conversion","sektor":"fossil-fuel-operations","pemilik":"PT Pertamina (Persero) "}},{"type":"Feature","geometry":{"type":"Point","coordinates":[116.2467362,-0.794239934]},"properties":{"co2":0.88,"kapasitas":0,"nama":"Kutei · Conventional onshore","jenis":"","sektor":"fossil-fuel-operations","pemilik":""}},{"type":"Feature","geometry":{"type":"Point","coordinates":[106.6457714,-6.2479317]},"properties":{"co2":0.81,"kapasitas":1500000,"nama":"IKPP P.T. Indah Kiat Pulp & Paper TbK - Tangerang Mill","jenis":"Mechanical and semi-chemical wood pulp","sektor":"manufacturing","pemilik":"PT Asia Pulp & Paper Group "}},{"type":"Feature","geometry":{"type":"Point","coordinates":[106.2857455,-6.1397364]},"properties":{"co2":0.81,"kapasitas":1500000,"nama":"IKPP P.T. Indah Kiat Pulp & Paper TbK - Serang Mill","jenis":"Chemical wood pulp; Mechanical and semi-chemical wood pulp","sektor":"manufacturing","pemilik":"PT Asia Pulp & Paper Group "}},{"type":"Feature","geometry":{"type":"Point","coordinates":[134.024486877159,-0.998099181744597]},"properties":{"co2":0.8,"kapasitas":1500000,"nama":"SDIC Indonesia Manokwari Cement Plant","jenis":"integrated dry","sektor":"manufacturing","pemilik":"PT Conch-SDIC Papua Cement Indonesia"}},{"type":"Feature","geometry":{"type":"Point","coordinates":[108.393389,-6.381385]},"properties":{"co2":0.73,"kapasitas":150000,"nama":"Pertamina Balongan Refinery","jenis":"Hydroskimming","sektor":"fossil-fuel-operations","pemilik":"PT Pertamina (Persero) "}},{"type":"Feature","geometry":{"type":"Point","coordinates":[117.229117,-0.496832]},"properties":{"co2":0.73,"kapasitas":8656317,"nama":"MSJ Coal Mine","jenis":"Surface","sektor":"fossil-fuel-operations","pemilik":"PT Mahakam Sumber Jaya"}},{"type":"Feature","geometry":{"type":"Point","coordinates":[113.550687,0.224239]},"properties":{"co2":0.69,"kapasitas":7134481,"nama":"AMC Coal Mines","jenis":"Surface","sektor":"fossil-fuel-operations","pemilik":"PT Maruwai Coal"}},{"type":"Feature","geometry":{"type":"Point","coordinates":[116.865235,-8.967323]},"properties":{"co2":0.68,"kapasitas":9636000000,"nama":"Batu Hijau Mine","jenis":"copper-mine","sektor":"mineral-extraction","pemilik":"PT Amman Mineral Internasional Tbk"}},{"type":"Feature","geometry":{"type":"Point","coordinates":[115.570713376249,-2.06079729772885]},"properties":{"co2":0.66,"kapasitas":1500000,"nama":"Conch Cement South Kalimantan Cement Plant","jenis":"integrated dry","sektor":"manufacturing","pemilik":"PT Conch South Kalimantan Cement"}},{"type":"Feature","geometry":{"type":"Point","coordinates":[111.5517256,-7.089595226]},"properties":{"co2":0.66,"kapasitas":0,"nama":"Java Sea · Conventional onshore","jenis":"","sektor":"fossil-fuel-operations","pemilik":""}},{"type":"Feature","geometry":{"type":"Point","coordinates":[111.45869140192,-6.866924814181]},"properties":{"co2":0.64,"kapasitas":3000000,"nama":"Semen Indonesia Gresik Rembang Cement Plant","jenis":"integrated dry","sektor":"manufacturing","pemilik":"PT Semen Indonesia (Persero) Tbk"}},{"type":"Feature","geometry":{"type":"Point","coordinates":[106.000263478664,-6.00223103811259]},"properties":{"co2":0.63,"kapasitas":4000000,"nama":"Krakatau Steel Cilegon plant","jenis":"EAF","sektor":"manufacturing","pemilik":"PT Krakatau Steel (Persero) Tbk"}},{"type":"Feature","geometry":{"type":"Point","coordinates":[110.142034,-0.060424]},"properties":{"co2":0.63,"kapasitas":300000,"nama":"Tajan Bauxite Mine & CGA Alumina Refinery","jenis":"Refinery","sektor":"manufacturing","pemilik":""}},{"type":"Feature","geometry":{"type":"Point","coordinates":[117.45344,2.036798]},"properties":{"co2":0.62,"kapasitas":19406905,"nama":"Binungan Coal Mine","jenis":"Surface","sektor":"fossil-fuel-operations","pemilik":"PT Berau Coal"}},{"type":"Feature","geometry":{"type":"Point","coordinates":[95.2459368792719,5.45177872538932]},"properties":{"co2":0.61,"kapasitas":1840000,"nama":"Solusi Bangun Andalas Lhoknga Cement Plant","jenis":"integrated dry","sektor":"manufacturing","pemilik":"PT Solusi Bangun Andalas"}},{"type":"Feature","geometry":{"type":"Point","coordinates":[99.454596,3.350344]},"properties":{"co2":0.58,"kapasitas":300000,"nama":"Kuala Tanjung aluminium plant","jenis":"Smelting","sektor":"manufacturing","pemilik":"PT Indonesia Asahan Aluminium "}},{"type":"Feature","geometry":{"type":"Point","coordinates":[106.860827773603,-6.97688876410759]},"properties":{"co2":0.55,"kapasitas":1800000,"nama":"Semen Jawa Cement Plant","jenis":"integrated dry","sektor":"manufacturing","pemilik":"PT Semen Jawa"}},{"type":"Feature","geometry":{"type":"Point","coordinates":[114.416514,-0.989742]},"properties":{"co2":0.54,"kapasitas":5000000,"nama":"ABB Coal Mine","jenis":"Surface","sektor":"fossil-fuel-operations","pemilik":"PT Asmin Bara Bronang"}},{"type":"Feature","geometry":{"type":"Point","coordinates":[110.623359066139,-7.0891917235942]},"properties":{"co2":0.54,"kapasitas":2500000,"nama":"Semen Grobogan Semarang Grobogan Cement Plant","jenis":"integrated dry","sektor":"manufacturing","pemilik":"PT Indocement Tunggal Prakarsa Tbk"}},{"type":"Feature","geometry":{"type":"Point","coordinates":[103.914399,-3.3194374]},"properties":{"co2":0.54,"kapasitas":997900,"nama":"P.T. Lontar Papyrus Pulp & Paper Industries - Jambi Mill","jenis":"Pulp misc. (known types include mechanical and semi-chemical wood pulp)","sektor":"manufacturing","pemilik":"PT Pabrik Kertas Tjiwi Kimia Tbk"}},{"type":"Feature","geometry":{"type":"Point","coordinates":[101.3298725,0.659298533]},"properties":{"co2":0.49,"kapasitas":0,"nama":"Central Sumatra · Conventional onshore","jenis":"","sektor":"fossil-fuel-operations","pemilik":"PT Pertamina (Persero) PT"}},{"type":"Feature","geometry":{"type":"Point","coordinates":[117.032835,-0.534905]},"properties":{"co2":0.48,"kapasitas":15078746,"nama":"MHU Coal Mine","jenis":"Surface","sektor":"fossil-fuel-operations","pemilik":"PT Multi Harapan Utama"}},{"type":"Feature","geometry":{"type":"Point","coordinates":[112.7459373,-7.2350376]},"properties":{"co2":0.46,"kapasitas":858213,"nama":"P.T. Pakerin","jenis":"Pulp misc. (known types include chemical wood pulp, mechanical and semi-chemical wood pulp)","sektor":"manufacturing","pemilik":""}},{"type":"Feature","geometry":{"type":"Point","coordinates":[97.1413222,5.1811638]},"properties":{"co2":0.46,"kapasitas":858213,"nama":"P.T. Kertas Kraft Aceh (Persero) - Head Office and Factory","jenis":"Pulp misc. (known types include chemical wood pulp)","sektor":"manufacturing","pemilik":"PT Pabrik Kertas Tjiwi Kimia Tbk"}},{"type":"Feature","geometry":{"type":"Point","coordinates":[104.8980058,-4.6045405]},"properties":{"co2":0.46,"kapasitas":858213,"nama":"P.T. Pola Pulpindo Mantap","jenis":"Pulp misc. (known types include mechanical and semi-chemical wood pulp)","sektor":"manufacturing","pemilik":""}},{"type":"Feature","geometry":{"type":"Point","coordinates":[105.3599568,-2.717332]},"properties":{"co2":0.46,"kapasitas":858213,"nama":"APP Oki Pulp Mill","jenis":"Pulp misc.","sektor":"manufacturing","pemilik":"PT OKI Pulp & Paper Mills "}},{"type":"Feature","geometry":{"type":"Point","coordinates":[109.2068488,0.0610833]},"properties":{"co2":0.46,"kapasitas":858213,"nama":"P.T. Westkalindo Pulp & Paper Mill","jenis":"Pulp misc.","sektor":"manufacturing","pemilik":""}},{"type":"Feature","geometry":{"type":"Point","coordinates":[101.8575757,0.3909461]},"properties":{"co2":0.46,"kapasitas":858213,"nama":"Riau Andalan Pulp & Paper P.T. - Riaupulp / Riaupaper Pulp Mill","jenis":"Pulp misc.","sektor":"manufacturing","pemilik":""}},{"type":"Feature","geometry":{"type":"Point","coordinates":[107.4909418,-6.8376878]},"properties":{"co2":0.46,"kapasitas":858213,"nama":"P.T. Kertas Padalarang - PTKP - (PERSERO)","jenis":"Pulp misc.","sektor":"manufacturing","pemilik":""}},{"type":"Feature","geometry":{"type":"Point","coordinates":[113.9432246,-7.124748895]},"properties":{"co2":0.45,"kapasitas":0,"nama":"East Java · Conventional shelf","jenis":"","sektor":"fossil-fuel-operations","pemilik":"CNOOC Ltd"}},{"type":"Feature","geometry":{"type":"Point","coordinates":[117.608774,3.290274]},"properties":{"co2":0.45,"kapasitas":14073496,"nama":"MIP Coal Mine","jenis":"Surface","sektor":"fossil-fuel-operations","pemilik":"PT Mandiri Intiperkasa"}},{"type":"Feature","geometry":{"type":"Point","coordinates":[115.225696,-2.944753]},"properties":{"co2":0.44,"kapasitas":13961802,"nama":"BRE Coal Mine","jenis":"Surface","sektor":"fossil-fuel-operations","pemilik":"PT Bhumi Rantau Energi"}},{"type":"Feature","geometry":{"type":"Point","coordinates":[115.107243,-3.15864]},"properties":{"co2":0.44,"kapasitas":13961802,"nama":"BMB Block 2 Coal Mine","jenis":"Surface","sektor":"fossil-fuel-operations","pemilik":"PT Binuang Mitra Bersama"}},{"type":"Feature","geometry":{"type":"Point","coordinates":[101.5406643,0.7070315]},"properties":{"co2":0.43,"kapasitas":800000,"nama":"IKPP P.T. Indah Kiat Pulp & Paper TbK - Perawang Mill","jenis":"Pulp misc. (known types include chemical wood pulp)","sektor":"manufacturing","pemilik":"PT Asia Pulp & Paper Group "}},{"type":"Feature","geometry":{"type":"Point","coordinates":[101.760224,-1.401951]},"properties":{"co2":0.41,"kapasitas":3420641,"nama":"KIM Coal Mine","jenis":"Underground","sektor":"fossil-fuel-operations","pemilik":"PT Kuansing Inti Makmur"}},{"type":"Feature","geometry":{"type":"Point","coordinates":[115.029658,-1.140454]},"properties":{"co2":0.41,"kapasitas":3401405,"nama":"GCM Coal Mine","jenis":"Underground","sektor":"fossil-fuel-operations","pemilik":""}},{"type":"Feature","geometry":{"type":"Point","coordinates":[96.236746,4.202094]},"properties":{"co2":0.4,"kapasitas":12705240,"nama":"Mifa Bersaudara Coal Mine","jenis":"Surface","sektor":"fossil-fuel-operations","pemilik":"PT Media Djaya Bersama"}},{"type":"Feature","geometry":{"type":"Point","coordinates":[111.955585,-6.767408]},"properties":{"co2":0.38,"kapasitas":50000,"nama":"Pertamina Trans-Pacific Petrochemical Indotama Refinery","jenis":"Medium Conversion","sektor":"fossil-fuel-operations","pemilik":"PT Pertamina (Persero) "}},{"type":"Feature","geometry":{"type":"Point","coordinates":[115.186712,-3.86281]},"properties":{"co2":0.37,"kapasitas":11727914,"nama":"Kintap Coal Mine","jenis":"Surface","sektor":"fossil-fuel-operations","pemilik":"PT Arutmin Indonesia"}},{"type":"Feature","geometry":{"type":"Point","coordinates":[117.604699,2.219299]},"properties":{"co2":0.35,"kapasitas":11029824,"nama":"Lati Coal Mine","jenis":"Surface","sektor":"fossil-fuel-operations","pemilik":"PT Berau Coal"}},{"type":"Feature","geometry":{"type":"Point","coordinates":[115.336046,-3.766755]},"properties":{"co2":0.34,"kapasitas":4048923,"nama":"Satui Coal Mine","jenis":"Surface","sektor":"fossil-fuel-operations","pemilik":"PT Arutmin Indonesia"}},{"type":"Feature","geometry":{"type":"Point","coordinates":[116.1332567,0.4385802]},"properties":{"co2":0.34,"kapasitas":13905955,"nama":"FSP Coal Mine","jenis":"Surface","sektor":"fossil-fuel-operations","pemilik":""}},{"type":"Feature","geometry":{"type":"Point","coordinates":[109.397608739713,-1.36062571644682]},"properties":{"co2":0.33,"kapasitas":158673,"nama":"Kayong Utara Regency","jenis":"Refinery","sektor":"manufacturing","pemilik":""}},{"type":"Feature","geometry":{"type":"Point","coordinates":[115.1968342,-3.726630506]},"properties":{"co2":0.33,"kapasitas":3401405,"nama":"A3M Coal Mine","jenis":"Surface","sektor":"fossil-fuel-operations","pemilik":""}},{"type":"Feature","geometry":{"type":"Point","coordinates":[104.834957,-5.055389]},"properties":{"co2":0.33,"kapasitas":3401405,"nama":"Saptajaya Menjak Sengewari Coal Mine","jenis":"Surface","sektor":"fossil-fuel-operations","pemilik":""}},{"type":"Feature","geometry":{"type":"Point","coordinates":[102.512266,-3.754052]},"properties":{"co2":0.33,"kapasitas":3401405,"nama":"Seluang Coal Mine","jenis":"Surface","sektor":"fossil-fuel-operations","pemilik":""}},{"type":"Feature","geometry":{"type":"Point","coordinates":[102.518424,-3.747372]},"properties":{"co2":0.33,"kapasitas":3401405,"nama":"Arantiga Coal Mine","jenis":"Surface","sektor":"fossil-fuel-operations","pemilik":""}},{"type":"Feature","geometry":{"type":"Point","coordinates":[115.706,-0.581028]},"properties":{"co2":0.31,"kapasitas":9912879,"nama":"Bharinto Ekatama Coal Mine","jenis":"Surface","sektor":"fossil-fuel-operations","pemilik":"PT Bharinto Ekatama"}},{"type":"Feature","geometry":{"type":"Point","coordinates":[114.486164,-1.114128]},"properties":{"co2":0.3,"kapasitas":3546298,"nama":"SMM Coal Mine","jenis":"Surface","sektor":"fossil-fuel-operations","pemilik":"PT Suprabari Mapanindo Mineral"}},{"type":"Feature","geometry":{"type":"Point","coordinates":[117.291968,0.145964]},"properties":{"co2":0.29,"kapasitas":9019324,"nama":"Indominco Mandiri Coal Mine","jenis":"Surface","sektor":"fossil-fuel-operations","pemilik":"PT Indominco Mandiri"}},{"type":"Feature","geometry":{"type":"Point","coordinates":[117.7439596,2.0077959]},"properties":{"co2":0.28,"kapasitas":525000,"nama":"P.T. Kiani Kertas - Pulp Mill Mangkajang","jenis":"Chemical wood pulp","sektor":"manufacturing","pemilik":""}},{"type":"Feature","geometry":{"type":"Point","coordinates":[116.019495,-3.256975]},"properties":{"co2":0.28,"kapasitas":7500000,"nama":"Batulicin Coal Mine","jenis":"Surface","sektor":"fossil-fuel-operations","pemilik":"PT Arutmin Indonesia"}},{"type":"Feature","geometry":{"type":"Point","coordinates":[114.790889,-0.586256]},"properties":{"co2":0.27,"kapasitas":2848208,"nama":"MGM Coal Mine","jenis":"Surface","sektor":"fossil-fuel-operations","pemilik":"PT Marunda Graha Mineral"}},{"type":"Feature","geometry":{"type":"Point","coordinates":[97.5621339,5.162895499]},"properties":{"co2":0.27,"kapasitas":0,"nama":"North Sumatra - Mergui · LNG","jenis":"","sektor":"fossil-fuel-operations","pemilik":""}},{"type":"Feature","geometry":{"type":"Point","coordinates":[97.81328679,4.71791365]},"properties":{"co2":0.27,"kapasitas":0,"nama":"North Sumatra - Mergui · Acid/sour gas","jenis":"","sektor":"fossil-fuel-operations","pemilik":""}},{"type":"Feature","geometry":{"type":"Point","coordinates":[115.620134,-3.714308]},"properties":{"co2":0.27,"kapasitas":8377081,"nama":"TBR Coal Mine","jenis":"Surface","sektor":"fossil-fuel-operations","pemilik":"PT Tanah Bumbu Resources"}},{"type":"Feature","geometry":{"type":"Point","coordinates":[114.855295,-3.943623]},"properties":{"co2":0.27,"kapasitas":8377081,"nama":"DGL Coal Mine","jenis":"Surface","sektor":"fossil-fuel-operations","pemilik":""}},{"type":"Feature","geometry":{"type":"Point","coordinates":[117.132998,-0.196807]},"properties":{"co2":0.27,"kapasitas":8377081,"nama":"Jembayan Coal Mine","jenis":"Surface","sektor":"fossil-fuel-operations","pemilik":"PT Jembayan Muarabara"}},{"type":"Feature","geometry":{"type":"Point","coordinates":[104.0196618,-3.4365671]},"properties":{"co2":0.26,"kapasitas":490000,"nama":"P.T. TanjungEnim Lestari Pulp & Paper - TEL - Marubeni Group","jenis":"Chemical wood pulp; Pulp from fibres other than wood","sektor":"manufacturing","pemilik":"PT Pabrik Kertas Tjiwi Kimia Tbk"}},{"type":"Feature","geometry":{"type":"Point","coordinates":[116.9853,2.9037]},"properties":{"co2":0.26,"kapasitas":8097845,"nama":"PKN Coal Mines","jenis":"Surface","sektor":"fossil-fuel-operations","pemilik":"PT Pesona Khatulistiwa Nusantara"}},{"type":"Feature","geometry":{"type":"Point","coordinates":[115.527798,-2.204484]},"properties":{"co2":0.25,"kapasitas":7958227,"nama":"Wara Coal Mine","jenis":"Surface","sektor":"fossil-fuel-operations","pemilik":"PT Adaro Indonesia"}},{"type":"Feature","geometry":{"type":"Point","coordinates":[106.809191,-6.172984]},"properties":{"co2":0.25,"kapasitas":739976,"nama":"KRU Coal Mine","jenis":"Underground","sektor":"fossil-fuel-operations","pemilik":"Kusuma Raya Utama"}},{"type":"Feature","geometry":{"type":"Point","coordinates":[117.280383,0.223309]},"properties":{"co2":0.25,"kapasitas":2596895,"nama":"Tambang Damai Coal Mine","jenis":"Surface","sektor":"fossil-fuel-operations","pemilik":"PT Tambang Damai"}},{"type":"Feature","geometry":{"type":"Point","coordinates":[117.0436827,-0.727594853]},"properties":{"co2":0.25,"kapasitas":7748800,"nama":"BSSR Coal Mine","jenis":"Surface","sektor":"fossil-fuel-operations","pemilik":"PT Baramulti Suksessarana Tbk"}},{"type":"Feature","geometry":{"type":"Point","coordinates":[102.1525,1.34306]},"properties":{"co2":0.24,"kapasitas":50000,"nama":"Pertamina Sungai Pakning Refinery","jenis":"Hydroskimming","sektor":"fossil-fuel-operations","pemilik":"PT Pertamina (Persero) "}},{"type":"Feature","geometry":{"type":"Point","coordinates":[117.569066115154,0.0902355555028267]},"properties":{"co2":0.24,"kapasitas":714408,"nama":"IDN-Bontang · methanol","jenis":"methanol","sektor":"manufacturing","pemilik":""}},{"type":"Feature","geometry":{"type":"Point","coordinates":[117.084636,-0.320587]},"properties":{"co2":0.24,"kapasitas":7455602,"nama":"IBP Coal Mine","jenis":"Surface","sektor":"fossil-fuel-operations","pemilik":"PT Insani Baraperkasa"}},{"type":"Feature","geometry":{"type":"Point","coordinates":[106.919627734116,-6.18557640060067]},"properties":{"co2":0.22,"kapasitas":1500000,"nama":"Master Steel Jakarta Steel plant","jenis":"EAF","sektor":"manufacturing","pemilik":"PT The Master Steel MFG"}},{"type":"Feature","geometry":{"type":"Point","coordinates":[117.141823,-0.849881]},"properties":{"co2":0.22,"kapasitas":6966939,"nama":"Singlurus Pratama Coal Mine","jenis":"Surface","sektor":"fossil-fuel-operations","pemilik":"PT Singlurus Pratama"}},{"type":"Feature","geometry":{"type":"Point","coordinates":[102.6,1.2]},"properties":{"co2":0.21,"kapasitas":0,"nama":"Central Sumatra · Conventional shelf","jenis":"","sektor":"fossil-fuel-operations","pemilik":""}},{"type":"Feature","geometry":{"type":"Point","coordinates":[120.1948712,-3.986726052]},"properties":{"co2":0.2,"kapasitas":0,"nama":"Sengkang Bone · LNG","jenis":"","sektor":"fossil-fuel-operations","pemilik":""}},{"type":"Feature","geometry":{"type":"Point","coordinates":[114.804693,-1.216067]},"properties":{"co2":0.2,"kapasitas":6422429,"nama":"TOP Coal Mine","jenis":"Surface","sektor":"fossil-fuel-operations","pemilik":""}},{"type":"Feature","geometry":{"type":"Point","coordinates":[117.5821904,2.179380496]},"properties":{"co2":0.19,"kapasitas":6143193,"nama":"Gurimbang Coal Mine","jenis":"Surface","sektor":"fossil-fuel-operations","pemilik":"PT Berau Coal"}},{"type":"Feature","geometry":{"type":"Point","coordinates":[111.540529,-2.252444]},"properties":{"co2":0.19,"kapasitas":6000000,"nama":"Jangkar Prima Coal Mine","jenis":"Surface","sektor":"fossil-fuel-operations","pemilik":"PT Jangkar Prima"}},{"type":"Feature","geometry":{"type":"Point","coordinates":[117.127228,-0.486982]},"properties":{"co2":0.19,"kapasitas":5947728,"nama":"BISM Coal Mine","jenis":"Surface","sektor":"fossil-fuel-operations","pemilik":"PT Bina Insan Sukses Mandiri"}},{"type":"Feature","geometry":{"type":"Point","coordinates":[117.268994,-0.430956]},"properties":{"co2":0.19,"kapasitas":8432928,"nama":"ABK Coal Mines","jenis":"Surface","sektor":"fossil-fuel-operations","pemilik":"PT Anugerah Bara Kaltim"}},{"type":"Feature","geometry":{"type":"Point","coordinates":[103.40783,-3.800844]},"properties":{"co2":0.18,"kapasitas":5794148,"nama":"MIP Adaro Coal Mine","jenis":"Surface","sektor":"fossil-fuel-operations","pemilik":"PT Mustika Indah Permai"}},{"type":"Feature","geometry":{"type":"Point","coordinates":[115.604525,-2.354545]},"properties":{"co2":0.18,"kapasitas":5724339,"nama":"LSA Coal Mine","jenis":"Surface","sektor":"fossil-fuel-operations","pemilik":"PT Laskar Semesta Alam"}},{"type":"Feature","geometry":{"type":"Point","coordinates":[104.132646,-2.540082]},"properties":{"co2":0.18,"kapasitas":5584721,"nama":"PMC Coal Mine","jenis":"Surface","sektor":"fossil-fuel-operations","pemilik":"PT Putra Muba Coal"}},{"type":"Feature","geometry":{"type":"Point","coordinates":[115.213094,-1.637721]},"properties":{"co2":0.18,"kapasitas":2094270,"nama":"MTU Coal Mine","jenis":"Surface","sektor":"fossil-fuel-operations","pemilik":"PT Multi Tambangjaya Utama"}},{"type":"Feature","geometry":{"type":"Point","coordinates":[116.009892,-3.226223]},"properties":{"co2":0.18,"kapasitas":5570759,"nama":"BCMP Coal Mine","jenis":"Surface","sektor":"fossil-fuel-operations","pemilik":"PT Baramega Citra Mulia Persada"}},{"type":"Feature","geometry":{"type":"Point","coordinates":[115.604525,-2.354545]},"properties":{"co2":0.17,"kapasitas":5445103,"nama":"SCM Coal Mine","jenis":"Surface","sektor":"fossil-fuel-operations","pemilik":"PT Semesta Centramas"}},{"type":"Feature","geometry":{"type":"Point","coordinates":[106.831385,-6.214305]},"properties":{"co2":0.17,"kapasitas":5221714,"nama":"BGG Coal Mine","jenis":"Surface","sektor":"fossil-fuel-operations","pemilik":"PT Budi Gema Gempita"}},{"type":"Feature","geometry":{"type":"Point","coordinates":[116.975981,-0.595281]},"properties":{"co2":0.16,"kapasitas":5165867,"nama":"ABP Coal Mine","jenis":"Surface","sektor":"fossil-fuel-operations","pemilik":"PT Alamjaya Bara Pratama"}},{"type":"Feature","geometry":{"type":"Point","coordinates":[114.410053,-0.990809]},"properties":{"co2":0.16,"kapasitas":5000000,"nama":"ABJ Coal Mine","jenis":"Surface","sektor":"fossil-fuel-operations","pemilik":""}},{"type":"Feature","geometry":{"type":"Point","coordinates":[117.411245,2.165436]},"properties":{"co2":0.15,"kapasitas":4886631,"nama":"Sambarata Coal Mine","jenis":"Surface","sektor":"fossil-fuel-operations","pemilik":"PT Berau Coal"}},{"type":"Feature","geometry":{"type":"Point","coordinates":[117.849083,3.518469]},"properties":{"co2":0.15,"kapasitas":4830783,"nama":"LIM Coal Mine","jenis":"Surface","sektor":"fossil-fuel-operations","pemilik":"PT Lamindo Inter Multikon"}},{"type":"Feature","geometry":{"type":"Point","coordinates":[123.539698531664,-10.1952415884595]},"properties":{"co2":0.15,"kapasitas":500000,"nama":"Semen Kupang (Persero) Cement Plant","jenis":"integrated dry","sektor":"manufacturing","pemilik":"PT Semen Kupang (Persero)"}},{"type":"Feature","geometry":{"type":"Point","coordinates":[116.0369883,-2.695510618]},"properties":{"co2":0.15,"kapasitas":5900000,"nama":"SDE Coal Mine","jenis":"Underground","sektor":"fossil-fuel-operations","pemilik":""}},{"type":"Feature","geometry":{"type":"Point","coordinates":[117.258252,-0.408137]},"properties":{"co2":0.15,"kapasitas":4635318,"nama":"Lanna Harita Coal Mine","jenis":"Surface","sektor":"fossil-fuel-operations","pemilik":"PT Lanna Harita Indonesia"}},{"type":"Feature","geometry":{"type":"Point","coordinates":[115.110224,-3.877627]},"properties":{"co2":0.15,"kapasitas":4607395,"nama":"Mulia Coal Mine","jenis":"Surface","sektor":"fossil-fuel-operations","pemilik":"PT Arutmin Indonesia"}},{"type":"Feature","geometry":{"type":"Point","coordinates":[112.703747276192,-7.35471445034568]},"properties":{"co2":0.14,"kapasitas":650000,"nama":"PT Ispat Indo steel plant","jenis":"EAF","sektor":"manufacturing","pemilik":""}},{"type":"Feature","geometry":{"type":"Point","coordinates":[117.131417,-0.763911]},"properties":{"co2":0.14,"kapasitas":4328159,"nama":"Kutai Coal Mine","jenis":"Surface","sektor":"fossil-fuel-operations","pemilik":"PT Kutai Energi"}},{"type":"Feature","geometry":{"type":"Point","coordinates":[106.923712610428,-6.17921846404571]},"properties":{"co2":0.13,"kapasitas":900000,"nama":"Jakarta Prima Steel Industries plant","jenis":"EAF","sektor":"manufacturing","pemilik":"PT Jakarta Prima Steel Industries"}},{"type":"Feature","geometry":{"type":"Point","coordinates":[106.884179,-6.175735]},"properties":{"co2":0.13,"kapasitas":4188541,"nama":"PCS Coal Mine","jenis":"Surface","sektor":"fossil-fuel-operations","pemilik":"PT Paramitha Cipta Sarana"}},{"type":"Feature","geometry":{"type":"Point","coordinates":[103.805509,-3.656677]},"properties":{"co2":0.13,"kapasitas":4188541,"nama":"Banjarsari Pribumi Coal Mine","jenis":"Surface","sektor":"fossil-fuel-operations","pemilik":"PT Banjarsari Pribumi"}},{"type":"Feature","geometry":{"type":"Point","coordinates":[115.110224,-3.877627]},"properties":{"co2":0.13,"kapasitas":5000000,"nama":"Asam-Asam Coal Mine","jenis":"Surface","sektor":"fossil-fuel-operations","pemilik":"PT Arutmin Indonesia"}},{"type":"Feature","geometry":{"type":"Point","coordinates":[103.629522,-3.772116]},"properties":{"co2":0.13,"kapasitas":4090808,"nama":"BAU Coal Mine","jenis":"Surface","sektor":"fossil-fuel-operations","pemilik":"PT Bara Alam Utama"}},{"type":"Feature","geometry":{"type":"Point","coordinates":[116.013122,-3.23697]},"properties":{"co2":0.13,"kapasitas":4048923,"nama":"Gajah Mada Coal Mine","jenis":"Surface","sektor":"fossil-fuel-operations","pemilik":"KUD Gajah Mada"}},{"type":"Feature","geometry":{"type":"Point","coordinates":[116.982546,2.881242]},"properties":{"co2":0.13,"kapasitas":4000000,"nama":"DMC Coal Mine","jenis":"Surface","sektor":"fossil-fuel-operations","pemilik":""}},{"type":"Feature","geometry":{"type":"Point","coordinates":[116.0001,-3.422497]},"properties":{"co2":0.13,"kapasitas":3951190,"nama":"LCP Coal Mine","jenis":"Surface","sektor":"fossil-fuel-operations","pemilik":"PT Lestari Cipta Persada"}},{"type":"Feature","geometry":{"type":"Point","coordinates":[116.878597,-1.242208]},"properties":{"co2":0.12,"kapasitas":3874400,"nama":"MSA Coal Mine","jenis":"Surface","sektor":"fossil-fuel-operations","pemilik":"PT Multi Sarana Avindo"}},{"type":"Feature","geometry":{"type":"Point","coordinates":[115.85404,-0.317194]},"properties":{"co2":0.12,"kapasitas":3839496,"nama":"Trubaindo Coal Mine","jenis":"Surface","sektor":"fossil-fuel-operations","pemilik":"PT Trubaindo Coal Mining"}},{"type":"Feature","geometry":{"type":"Point","coordinates":[115.273485,-3.821315]},"properties":{"co2":0.12,"kapasitas":1200000,"nama":"Senakin Coal Mine","jenis":"Surface","sektor":"fossil-fuel-operations","pemilik":"PT Arutmin Indonesia"}},{"type":"Feature","geometry":{"type":"Point","coordinates":[116.598569,-0.299984]},"properties":{"co2":0.12,"kapasitas":1228639,"nama":"Kartika Selabumi Coal Mine","jenis":"Surface","sektor":"fossil-fuel-operations","pemilik":"PT Kartika Selabumi Mining"}},{"type":"Feature","geometry":{"type":"Point","coordinates":[117.120613,-0.267421]},"properties":{"co2":0.12,"kapasitas":3401405,"nama":"FBS Coal Mine","jenis":"Underground & Surface","sektor":"fossil-fuel-operations","pemilik":""}},{"type":"Feature","geometry":{"type":"Point","coordinates":[116.187533,-1.691236]},"properties":{"co2":0.12,"kapasitas":3401405,"nama":"DPS Coal Mine","jenis":"Surface","sektor":"fossil-fuel-operations","pemilik":""}},{"type":"Feature","geometry":{"type":"Point","coordinates":[104.066637,-2.3449042]},"properties":{"co2":0.11,"kapasitas":1172791,"nama":"Gorby Energy Coal Mine","jenis":"Surface","sektor":"fossil-fuel-operations","pemilik":""}},{"type":"Feature","geometry":{"type":"Point","coordinates":[115.621257,-3.714658]},"properties":{"co2":0.11,"kapasitas":3511393,"nama":"AJE Coal Mine","jenis":"Surface","sektor":"fossil-fuel-operations","pemilik":"PT Angsana Jaya Energi"}},{"type":"Feature","geometry":{"type":"Point","coordinates":[115.151507,-2.95744]},"properties":{"co2":0.11,"kapasitas":3490450,"nama":"EBL Coal Mine","jenis":"Surface","sektor":"fossil-fuel-operations","pemilik":"PT Energi Batubara Lestari"}},{"type":"Feature","geometry":{"type":"Point","coordinates":[113.086535,-1.268723]},"properties":{"co2":0.11,"kapasitas":3401405,"nama":"Yamabhumi Palaka Coal Mine","jenis":"Surface","sektor":"fossil-fuel-operations","pemilik":""}},{"type":"Feature","geometry":{"type":"Point","coordinates":[116.0860494,0.2690562]},"properties":{"co2":0.11,"kapasitas":3401405,"nama":"Tiwa Abadi Coal Mine","jenis":"Surface","sektor":"fossil-fuel-operations","pemilik":""}},{"type":"Feature","geometry":{"type":"Point","coordinates":[115.1042666,-2.0869801]},"properties":{"co2":0.11,"kapasitas":3401405,"nama":"RBT Coal Mine","jenis":"Surface","sektor":"fossil-fuel-operations","pemilik":""}},{"type":"Feature","geometry":{"type":"Point","coordinates":[103.7205239,-2.3853404]},"properties":{"co2":0.11,"kapasitas":3401405,"nama":"Intitirta Primasakti Coal Mine","jenis":"Surface","sektor":"fossil-fuel-operations","pemilik":""}},{"type":"Feature","geometry":{"type":"Point","coordinates":[115.0947825,-1.2163082]},"properties":{"co2":0.11,"kapasitas":3401405,"nama":"CSMP Coal Mine","jenis":"Surface","sektor":"fossil-fuel-operations","pemilik":""}},{"type":"Feature","geometry":{"type":"Point","coordinates":[116.9282993,0.3658396]},"properties":{"co2":0.11,"kapasitas":3401405,"nama":"BAPC Coal Mine","jenis":"Surface","sektor":"fossil-fuel-operations","pemilik":""}},{"type":"Feature","geometry":{"type":"Point","coordinates":[115.7243824,-2.923225957]},"properties":{"co2":0.11,"kapasitas":3401405,"nama":"Anugerah Bara Hampang Mine","jenis":"Surface","sektor":"fossil-fuel-operations","pemilik":""}},{"type":"Feature","geometry":{"type":"Point","coordinates":[114.6646531,-1.8315611]},"properties":{"co2":0.11,"kapasitas":3401405,"nama":"BPM Coal Mine","jenis":"Surface","sektor":"fossil-fuel-operations","pemilik":""}},{"type":"Feature","geometry":{"type":"Point","coordinates":[115.433106,-3.776799]},"properties":{"co2":0.11,"kapasitas":3401405,"nama":"UKS Coal Mine","jenis":"Surface","sektor":"fossil-fuel-operations","pemilik":""}},{"type":"Feature","geometry":{"type":"Point","coordinates":[115.195833,-0.760557]},"properties":{"co2":0.11,"kapasitas":3401405,"nama":"Sinomast Coal Mine","jenis":"Surface","sektor":"fossil-fuel-operations","pemilik":""}},{"type":"Feature","geometry":{"type":"Point","coordinates":[116.193346,-2.630993]},"properties":{"co2":0.11,"kapasitas":3401405,"nama":"Senamas Energindo Mulia Coal Mine","jenis":"Surface","sektor":"fossil-fuel-operations","pemilik":""}},{"type":"Feature","geometry":{"type":"Point","coordinates":[115.093892,-0.958849]},"properties":{"co2":0.11,"kapasitas":3401405,"nama":"PTDN Coal Mine","jenis":"Surface","sektor":"fossil-fuel-operations","pemilik":""}},{"type":"Feature","geometry":{"type":"Point","coordinates":[115.693942,-3.248536]},"properties":{"co2":0.11,"kapasitas":3401405,"nama":"Praharana Muda Parama Coal Mine","jenis":"Surface","sektor":"fossil-fuel-operations","pemilik":""}},{"type":"Feature","geometry":{"type":"Point","coordinates":[115.507165,-2.195955]},"properties":{"co2":0.11,"kapasitas":3401405,"nama":"PGS Coal Mine","jenis":"Surface","sektor":"fossil-fuel-operations","pemilik":""}},{"type":"Feature","geometry":{"type":"Point","coordinates":[115.101502,-1.007068]},"properties":{"co2":0.11,"kapasitas":3401405,"nama":"Padang Anugerah Coal Mine","jenis":"Surface","sektor":"fossil-fuel-operations","pemilik":""}},{"type":"Feature","geometry":{"type":"Point","coordinates":[114.740058,-0.281591]},"properties":{"co2":0.11,"kapasitas":3401405,"nama":"Luon Coal Project","jenis":"Surface","sektor":"fossil-fuel-operations","pemilik":""}},{"type":"Feature","geometry":{"type":"Point","coordinates":[115.951046,-2.914226]},"properties":{"co2":0.11,"kapasitas":3401405,"nama":"KGB Coal Mine","jenis":"Surface","sektor":"fossil-fuel-operations","pemilik":""}},{"type":"Feature","geometry":{"type":"Point","coordinates":[115.106446,-1.260245]},"properties":{"co2":0.11,"kapasitas":3401405,"nama":"KCPI Coal Mine","jenis":"Surface","sektor":"fossil-fuel-operations","pemilik":""}},{"type":"Feature","geometry":{"type":"Point","coordinates":[96.1410778,4.1704928]},"properties":{"co2":0.11,"kapasitas":3401405,"nama":"Nirmala Coal Nusantara Coal Mine","jenis":"Surface","sektor":"fossil-fuel-operations","pemilik":"PT Nirmala Coal Nusantara"}},{"type":"Feature","geometry":{"type":"Point","coordinates":[115.3803725,-1.9829662]},"properties":{"co2":0.11,"kapasitas":3401405,"nama":"SPD Coal Mine","jenis":"Surface","sektor":"fossil-fuel-operations","pemilik":"PT Sapta Persona Dinamika"}},{"type":"Feature","geometry":{"type":"Point","coordinates":[116.384259,0.097709]},"properties":{"co2":0.11,"kapasitas":3401405,"nama":"Jongkang II Coal Mine","jenis":"Surface","sektor":"fossil-fuel-operations","pemilik":""}},{"type":"Feature","geometry":{"type":"Point","coordinates":[115.589285,-3.501802]},"properties":{"co2":0.11,"kapasitas":3401405,"nama":"Jamrud Prima Citra Coal Mine","jenis":"Surface","sektor":"fossil-fuel-operations","pemilik":""}},{"type":"Feature","geometry":{"type":"Point","coordinates":[115.184893,-0.782117]},"properties":{"co2":0.11,"kapasitas":3401405,"nama":"GCFP Coal Mine","jenis":"Surface","sektor":"fossil-fuel-operations","pemilik":""}},{"type":"Feature","geometry":{"type":"Point","coordinates":[117.677911,1.063042]},"properties":{"co2":0.11,"kapasitas":3401405,"nama":"Ganda Alam Timur Coal Mine","jenis":"Surface","sektor":"fossil-fuel-operations","pemilik":""}},{"type":"Feature","geometry":{"type":"Point","coordinates":[114.880952,-0.926017]},"properties":{"co2":0.11,"kapasitas":3401405,"nama":"FMP Coal Mine","jenis":"Surface","sektor":"fossil-fuel-operations","pemilik":""}},{"type":"Feature","geometry":{"type":"Point","coordinates":[115.831443,-3.07823]},"properties":{"co2":0.11,"kapasitas":3401405,"nama":"Ekasatya Yanatama Coal Mine","jenis":"Surface","sektor":"fossil-fuel-operations","pemilik":""}},{"type":"Feature","geometry":{"type":"Point","coordinates":[117.489121,0.591203]},"properties":{"co2":0.11,"kapasitas":3401405,"nama":"Dmanka Coal Mine","jenis":"Surface","sektor":"fossil-fuel-operations","pemilik":""}},{"type":"Feature","geometry":{"type":"Point","coordinates":[114.498966,-0.27008]},"properties":{"co2":0.11,"kapasitas":3401405,"nama":"DBK Coal Mine","jenis":"Surface","sektor":"fossil-fuel-operations","pemilik":""}},{"type":"Feature","geometry":{"type":"Point","coordinates":[102.484413,-3.698278]},"properties":{"co2":0.11,"kapasitas":3401405,"nama":"Danau Mashitam Coal Mine","jenis":"Surface","sektor":"fossil-fuel-operations","pemilik":""}},{"type":"Feature","geometry":{"type":"Point","coordinates":[102.440796,-1.741585]},"properties":{"co2":0.11,"kapasitas":3401405,"nama":"CSP Coal Mine","jenis":"Surface","sektor":"fossil-fuel-operations","pemilik":""}},{"type":"Feature","geometry":{"type":"Point","coordinates":[113.550687,0.224239]},"properties":{"co2":0.11,"kapasitas":3401405,"nama":"Bumbun Coal Project","jenis":"Surface","sektor":"fossil-fuel-operations","pemilik":""}},{"type":"Feature","geometry":{"type":"Point","coordinates":[106.837958,-6.570278]},"properties":{"co2":0.11,"kapasitas":3401405,"nama":"BBU Coal Mine","jenis":"Surface","sektor":"fossil-fuel-operations","pemilik":""}},{"type":"Feature","geometry":{"type":"Point","coordinates":[116.571069,-1.252334]},"properties":{"co2":0.11,"kapasitas":3401405,"nama":"Ardi Utama Coal Mine","jenis":"Surface","sektor":"fossil-fuel-operations","pemilik":""}},{"type":"Feature","geometry":{"type":"Point","coordinates":[115.056122,-1.169524]},"properties":{"co2":0.11,"kapasitas":3401405,"nama":"AJP Coal Mine","jenis":"Surface","sektor":"fossil-fuel-operations","pemilik":""}},{"type":"Feature","geometry":{"type":"Point","coordinates":[115.59542,-3.580493]},"properties":{"co2":0.11,"kapasitas":3392718,"nama":"TIA Coal Mine","jenis":"Surface","sektor":"fossil-fuel-operations","pemilik":"PT Tunas Inti Abadi"}},{"type":"Feature","geometry":{"type":"Point","coordinates":[137.113264,-4.092455]},"properties":{"co2":0.11,"kapasitas":588000000,"nama":"Big Gossan Mine","jenis":"copper-mine","sektor":"mineral-extraction","pemilik":""}},{"type":"Feature","geometry":{"type":"Point","coordinates":[99.1606794,2.4527168]},"properties":{"co2":0.11,"kapasitas":194590,"nama":"P.T. Toba Pulp Lestari Tbk","jenis":"Chemical wood pulp; Pulp from fibres other than wood","sektor":"manufacturing","pemilik":""}},{"type":"Feature","geometry":{"type":"Point","coordinates":[110.217376,-2.391357]},"properties":{"co2":0.1,"kapasitas":504000000,"nama":"Kendawangan Mine","jenis":"bauxite-mine","sektor":"mineral-extraction","pemilik":"Harita Group "}},{"type":"Feature","geometry":{"type":"Point","coordinates":[103.636648,-3.753965]},"properties":{"co2":0.1,"kapasitas":3281023,"nama":"Dizamatra Powerindo Coal Mine","jenis":"Surface","sektor":"fossil-fuel-operations","pemilik":"PT Dizamatra Powerindo"}}]}